KUIPER-00061            
1 64521U 25134X   25207.32422664  .00027791  00000+0  80062-3 0  9992
2 64521  51.8734 172.5255 0005031 224.5246 135.5336 15.35521070  5830
KUIPER-00062            
1 64522U 25134Y   25207.90301919 -.00012499  00000+0 -34602-3 0  9996
2 64522  51.8735 169.6564 0006750 265.9757  94.0457 15.35508160  5925
KUIPER-00063            
1 64523U 25134Z   25207.63146443  .00032791  00000+0  92125-3 0  9995
2 64523  51.8759 170.8412 0002748 192.7720 167.3197 15.36227346  5883
KUIPER-00064            
1 64524U 25134AA  25207.87911838  .00041818  00000+0  11396-2 0  9990
2 64524  51.8770 169.5042 0002178 106.6433 253.4793 15.37061625  6228
KUIPER-00065            
1 64525U 25134AB  25207.14505046 -.00130808  00000+0 -39071-2 0  9991
2 64525  51.8702 173.5618 0007444 230.9497 129.0827 15.34500356  6042
KUIPER-00066            
1 64526U 25134AC  25207.62445439  .00025847  00000+0  71578-3 0  9997
2 64526  51.8776 170.7971 0001310 148.1515 211.9551 15.36805070  5881
KUIPER-00069            
1 64816U 25151A   25207.16668981  .00001181  00000+0  44513-4 0  9991
2 64816  51.8780 239.8689 0005788 169.9709 235.1456 15.35636179  2699
KUIPER-00070            
1 64817U 25151B   25207.16668981  .00001516  00000+0  55041-4 0  9992
2 64817  51.8775 239.9183 0005602 190.9083 189.3931 15.35019773  2691
