<?xml version="1.0" encoding="UTF-8"?>
<ndm xmlns:xsi="http://www.w3.org/2001/XMLSchema-instance" xsi:noNamespaceSchemaLocation="https://sanaregistry.org/r/ndmxml_unqualified/ndmxml-2.0.0-master-2.0.xsd">
<omm id="CCSDS_OMM_VERS" version="2.0">
<header><CREATION_DATE/><ORIGINATOR/></header><body><segment><metadata><OBJECT_NAME>KUIPER-00061</OBJECT_NAME><OBJECT_ID>2025-134X</OBJECT_ID><CENTER_NAME>EARTH</CENTER_NAME><REF_FRAME>TEME</REF_FRAME><TIME_SYSTEM>UTC</TIME_SYSTEM><MEAN_ELEMENT_THEORY>SGP4</MEAN_ELEMENT_THEORY></metadata><data><meanElements><EPOCH>2025-07-26T07:46:53.181696</EPOCH><MEAN_MOTION>15.35521070</MEAN_MOTION><ECCENTRICITY>.0005031</ECCENTRICITY><INCLINATION>51.8734</INCLINATION><RA_OF_ASC_NODE>172.5255</RA_OF_ASC_NODE><ARG_OF_PERICENTER>224.5246</ARG_OF_PERICENTER><MEAN_ANOMALY>135.5336</MEAN_ANOMALY></meanElements><tleParameters><EPHEMERIS_TYPE>0</EPHEMERIS_TYPE><CLASSIFICATION_TYPE>U</CLASSIFICATION_TYPE><NORAD_CAT_ID>64521</NORAD_CAT_ID><ELEMENT_SET_NO>999</ELEMENT_SET_NO><REV_AT_EPOCH>583</REV_AT_EPOCH><BSTAR>.80062E-3</BSTAR><MEAN_MOTION_DOT>.27791E-3</MEAN_MOTION_DOT><MEAN_MOTION_DDOT>0</MEAN_MOTION_DDOT></tleParameters></data></segment></body></omm>
<omm id="CCSDS_OMM_VERS" version="2.0">
<header><CREATION_DATE/><ORIGINATOR/></header><body><segment><metadata><OBJECT_NAME>KUIPER-00062</OBJECT_NAME><OBJECT_ID>2025-134Y</OBJECT_ID><CENTER_NAME>EARTH</CENTER_NAME><REF_FRAME>TEME</REF_FRAME><TIME_SYSTEM>UTC</TIME_SYSTEM><MEAN_ELEMENT_THEORY>SGP4</MEAN_ELEMENT_THEORY></metadata><data><meanElements><EPOCH>2025-07-26T21:40:20.858016</EPOCH><MEAN_MOTION>15.35508160</MEAN_MOTION><ECCENTRICITY>.000675</ECCENTRICITY><INCLINATION>51.8735</INCLINATION><RA_OF_ASC_NODE>169.6564</RA_OF_ASC_NODE><ARG_OF_PERICENTER>265.9757</ARG_OF_PERICENTER><MEAN_ANOMALY>94.0457</MEAN_ANOMALY></meanElements><tleParameters><EPHEMERIS_TYPE>0</EPHEMERIS_TYPE><CLASSIFICATION_TYPE>U</CLASSIFICATION_TYPE><NORAD_CAT_ID>64522</NORAD_CAT_ID><ELEMENT_SET_NO>999</ELEMENT_SET_NO><REV_AT_EPOCH>592</REV_AT_EPOCH><BSTAR>-.34602E-3</BSTAR><MEAN_MOTION_DOT>-.12499E-3</MEAN_MOTION_DOT><MEAN_MOTION_DDOT>0</MEAN_MOTION_DDOT></tleParameters></data></segment></body></omm>
<omm id="CCSDS_OMM_VERS" version="2.0">
<header><CREATION_DATE/><ORIGINATOR/></header><body><segment><metadata><OBJECT_NAME>KUIPER-00063</OBJECT_NAME><OBJECT_ID>2025-134Z</OBJECT_ID><CENTER_NAME>EARTH</CENTER_NAME><REF_FRAME>TEME</REF_FRAME><TIME_SYSTEM>UTC</TIME_SYSTEM><MEAN_ELEMENT_THEORY>SGP4</MEAN_ELEMENT_THEORY></metadata><data><meanElements><EPOCH>2025-07-26T15:09:18.526752</EPOCH><MEAN_MOTION>15.36227346</MEAN_MOTION><ECCENTRICITY>.0002748</ECCENTRICITY><INCLINATION>51.8759</INCLINATION><RA_OF_ASC_NODE>170.8412</RA_OF_ASC_NODE><ARG_OF_PERICENTER>192.7720</ARG_OF_PERICENTER><MEAN_ANOMALY>167.3197</MEAN_ANOMALY></meanElements><tleParameters><EPHEMERIS_TYPE>0</EPHEMERIS_TYPE><CLASSIFICATION_TYPE>U</CLASSIFICATION_TYPE><NORAD_CAT_ID>64523</NORAD_CAT_ID><ELEMENT_SET_NO>999</ELEMENT_SET_NO><REV_AT_EPOCH>588</REV_AT_EPOCH><BSTAR>.92125E-3</BSTAR><MEAN_MOTION_DOT>.32791E-3</MEAN_MOTION_DOT><MEAN_MOTION_DDOT>0</MEAN_MOTION_DDOT></tleParameters></data></segment></body></omm>
<omm id="CCSDS_OMM_VERS" version="2.0">
<header><CREATION_DATE/><ORIGINATOR/></header><body><segment><metadata><OBJECT_NAME>KUIPER-00064</OBJECT_NAME><OBJECT_ID>2025-134AA</OBJECT_ID><CENTER_NAME>EARTH</CENTER_NAME><REF_FRAME>TEME</REF_FRAME><TIME_SYSTEM>UTC</TIME_SYSTEM><MEAN_ELEMENT_THEORY>SGP4</MEAN_ELEMENT_THEORY></metadata><data><meanElements><EPOCH>2025-07-26T21:05:55.828032</EPOCH><MEAN_MOTION>15.37061625</MEAN_MOTION><ECCENTRICITY>.0002178</ECCENTRICITY><INCLINATION>51.8770</INCLINATION><RA_OF_ASC_NODE>169.5042</RA_OF_ASC_NODE><ARG_OF_PERICENTER>106.6433</ARG_OF_PERICENTER><MEAN_ANOMALY>253.4793</MEAN_ANOMALY></meanElements><tleParameters><EPHEMERIS_TYPE>0</EPHEMERIS_TYPE><CLASSIFICATION_TYPE>U</CLASSIFICATION_TYPE><NORAD_CAT_ID>64524</NORAD_CAT_ID><ELEMENT_SET_NO>999</ELEMENT_SET_NO><REV_AT_EPOCH>622</REV_AT_EPOCH><BSTAR>.11396E-2</BSTAR><MEAN_MOTION_DOT>.41818E-3</MEAN_MOTION_DOT><MEAN_MOTION_DDOT>0</MEAN_MOTION_DDOT></tleParameters></data></segment></body></omm>
<omm id="CCSDS_OMM_VERS" version="2.0">
<header><CREATION_DATE/><ORIGINATOR/></header><body><segment><metadata><OBJECT_NAME>KUIPER-00065</OBJECT_NAME><OBJECT_ID>2025-134AB</OBJECT_ID><CENTER_NAME>EARTH</CENTER_NAME><REF_FRAME>TEME</REF_FRAME><TIME_SYSTEM>UTC</TIME_SYSTEM><MEAN_ELEMENT_THEORY>SGP4</MEAN_ELEMENT_THEORY></metadata><data><meanElements><EPOCH>2025-07-26T03:28:52.359744</EPOCH><MEAN_MOTION>15.34500356</MEAN_MOTION><ECCENTRICITY>.0007444</ECCENTRICITY><INCLINATION>51.8702</INCLINATION><RA_OF_ASC_NODE>173.5618</RA_OF_ASC_NODE><ARG_OF_PERICENTER>230.9497</ARG_OF_PERICENTER><MEAN_ANOMALY>129.0827</MEAN_ANOMALY></meanElements><tleParameters><EPHEMERIS_TYPE>0</EPHEMERIS_TYPE><CLASSIFICATION_TYPE>U</CLASSIFICATION_TYPE><NORAD_CAT_ID>64525</NORAD_CAT_ID><ELEMENT_SET_NO>999</ELEMENT_SET_NO><REV_AT_EPOCH>604</REV_AT_EPOCH><BSTAR>-.39071E-2</BSTAR><MEAN_MOTION_DOT>-.130808E-2</MEAN_MOTION_DOT><MEAN_MOTION_DDOT>0</MEAN_MOTION_DDOT></tleParameters></data></segment></body></omm>
<omm id="CCSDS_OMM_VERS" version="2.0">
<header><CREATION_DATE/><ORIGINATOR/></header><body><segment><metadata><OBJECT_NAME>KUIPER-00066</OBJECT_NAME><OBJECT_ID>2025-134AC</OBJECT_ID><CENTER_NAME>EARTH</CENTER_NAME><REF_FRAME>TEME</REF_FRAME><TIME_SYSTEM>UTC</TIME_SYSTEM><MEAN_ELEMENT_THEORY>SGP4</MEAN_ELEMENT_THEORY></metadata><data><meanElements><EPOCH>2025-07-26T14:59:12.859296</EPOCH><MEAN_MOTION>15.36805070</MEAN_MOTION><ECCENTRICITY>.000131</ECCENTRICITY><INCLINATION>51.8776</INCLINATION><RA_OF_ASC_NODE>170.7971</RA_OF_ASC_NODE><ARG_OF_PERICENTER>148.1515</ARG_OF_PERICENTER><MEAN_ANOMALY>211.9551</MEAN_ANOMALY></meanElements><tleParameters><EPHEMERIS_TYPE>0</EPHEMERIS_TYPE><CLASSIFICATION_TYPE>U</CLASSIFICATION_TYPE><NORAD_CAT_ID>64526</NORAD_CAT_ID><ELEMENT_SET_NO>999</ELEMENT_SET_NO><REV_AT_EPOCH>588</REV_AT_EPOCH><BSTAR>.71578E-3</BSTAR><MEAN_MOTION_DOT>.25847E-3</MEAN_MOTION_DOT><MEAN_MOTION_DDOT>0</MEAN_MOTION_DDOT></tleParameters></data></segment></body></omm>
<omm id="CCSDS_OMM_VERS" version="2.0">
<header><CREATION_DATE/><ORIGINATOR/></header><body><segment><metadata><OBJECT_NAME>KUIPER-00069</OBJECT_NAME><OBJECT_ID>2025-151A</OBJECT_ID><CENTER_NAME>EARTH</CENTER_NAME><REF_FRAME>TEME</REF_FRAME><TIME_SYSTEM>UTC</TIME_SYSTEM><MEAN_ELEMENT_THEORY>SGP4</MEAN_ELEMENT_THEORY></metadata><data><meanElements><EPOCH>2025-07-26T04:00:01.999584</EPOCH><MEAN_MOTION>15.35636179</MEAN_MOTION><ECCENTRICITY>.0005788</ECCENTRICITY><INCLINATION>51.8780</INCLINATION><RA_OF_ASC_NODE>239.8689</RA_OF_ASC_NODE><ARG_OF_PERICENTER>169.9709</ARG_OF_PERICENTER><MEAN_ANOMALY>235.1456</MEAN_ANOMALY></meanElements><tleParameters><EPHEMERIS_TYPE>0</EPHEMERIS_TYPE><CLASSIFICATION_TYPE>U</CLASSIFICATION_TYPE><NORAD_CAT_ID>64816</NORAD_CAT_ID><ELEMENT_SET_NO>999</ELEMENT_SET_NO><REV_AT_EPOCH>269</REV_AT_EPOCH><BSTAR>.44513E-4</BSTAR><MEAN_MOTION_DOT>.1181E-4</MEAN_MOTION_DOT><MEAN_MOTION_DDOT>0</MEAN_MOTION_DDOT></tleParameters></data></segment></body></omm>
<omm id="CCSDS_OMM_VERS" version="2.0">
<header><CREATION_DATE/><ORIGINATOR/></header><body><segment><metadata><OBJECT_NAME>KUIPER-00070</OBJECT_NAME><OBJECT_ID>2025-151B</OBJECT_ID><CENTER_NAME>EARTH</CENTER_NAME><REF_FRAME>TEME</REF_FRAME><TIME_SYSTEM>UTC</TIME_SYSTEM><MEAN_ELEMENT_THEORY>SGP4</MEAN_ELEMENT_THEORY></metadata><data><meanElements><EPOCH>2025-07-26T04:00:01.999584</EPOCH><MEAN_MOTION>15.35019773</MEAN_MOTION><ECCENTRICITY>.0005602</ECCENTRICITY><INCLINATION>51.8775</INCLINATION><RA_OF_ASC_NODE>239.9183</RA_OF_ASC_NODE><ARG_OF_PERICENTER>190.9083</ARG_OF_PERICENTER><MEAN_ANOMALY>189.3931</MEAN_ANOMALY></meanElements><tleParameters><EPHEMERIS_TYPE>0</EPHEMERIS_TYPE><CLASSIFICATION_TYPE>U</CLASSIFICATION_TYPE><NORAD_CAT_ID>64817</NORAD_CAT_ID><ELEMENT_SET_NO>999</ELEMENT_SET_NO><REV_AT_EPOCH>269</REV_AT_EPOCH><BSTAR>.55041E-4</BSTAR><MEAN_MOTION_DOT>.1516E-4</MEAN_MOTION_DOT><MEAN_MOTION_DDOT>0</MEAN_MOTION_DDOT></tleParameters></data></segment></body></omm>

</ndm>
